{
    "links": {
        "self": "http://www.neowsapp.com/rest/v1/neo/3447910?api_key=iIulBulltgU6a56xZRHN4H3l9WmuAYTsLGpBGhQ2"
    },
    "id": "3447910",
    "neo_reference_id": "3447910",
    "name": "(2009 DV)",
    "designation": "2009 DV",
    "nasa_jpl_url": "http://ssd.jpl.nasa.gov/sbdb.cgi?sstr=3447910",
    "absolute_magnitude_h": 24.9,
    "estimated_diameter": {
        "kilometers": {
            "estimated_diameter_min": 0.0278326768,
            "estimated_diameter_max": 0.0622357573
        },
        "meters": {
            "estimated_diameter_min": 27.8326768072,
            "estimated_diameter_max": 62.2357573367
        },
        "miles": {
            "estimated_diameter_min": 0.0172944182,
            "estimated_diameter_max": 0.0386714948
        },
        "feet": {
            "estimated_diameter_min": 91.3145593761,
            "estimated_diameter_max": 204.1855621004
        }
    },
    "is_potentially_hazardous_asteroid": false,
    "close_approach_data": [
        {
            "close_approach_date": "2009-02-14",
            "close_approach_date_full": "2009-Feb-14 04:15",
            "epoch_date_close_approach": 1234584900000,
            "relative_velocity": {
                "kilometers_per_second": "22.0341894747",
                "kilometers_per_hour": "79323.0821088073",
                "miles_per_hour": "49288.2784358864"
            },
            "miss_distance": {
                "astronomical": "0.0132328335",
                "lunar": "5.1475722315",
                "kilometers": "1979603.705664645",
                "miles": "1230068.703656301"
            },
            "orbiting_body": "Earth"
        }
    ],
    "orbital_data": {
        "orbit_id": "11",
        "orbit_determination_date": "2017-04-06 09:01:19",
        "first_observation_date": "2009-02-17",
        "last_observation_date": "2009-02-24",
        "data_arc_in_days": 7,
        "observations_used": 40,
        "orbit_uncertainty": "8",
        "minimum_orbit_intersection": ".00977256",
        "jupiter_tisserand_invariant": "3.536",
        "epoch_osculation": "2454882.5",
        "eccentricity": ".7256471593799579",
        "semi_major_axis": "1.926498299850659",
        "inclination": "4.129121708943708",
        "ascending_node_longitude": "333.8006153589278",
        "orbital_period": "976.6779253180496",
        "perihelion_distance": ".52854028101371",
        "perihelion_argument": "76.02313227993683",
        "aphelion_distance": "3.324456318687609",
        "perihelion_time": "2454830.442424937993",
        "mean_anomaly": "19.18823650715737",
        "mean_motion": ".3685964335507717",
        "equinox": "J2000",
        "orbit_class": {
            "orbit_class_type": "APO",
            "orbit_class_description": "Near-Earth asteroid orbits which cross the Earth’s orbit similar to that of 1862 Apollo",
            "orbit_class_range": "a (semi-major axis) > 1.0 AU; q (perihelion) < 1.017 AU"
        }
    },
    "is_sentry_object": false
}